NIMIQ 2                 
1 27632U 02062A   26194.52058796 -.00000080  00000+0  00000+0 0  9991
2 27632   9.5047  56.6156 0005242  54.1789 258.8055  1.00270229 44445
ANIK F2                 
1 28378U 04027A   26194.52058796 -.00000057  00000+0  00000+0 0  9996
2 28378   3.3532  79.0942 0003552  31.4922 257.0931  1.00271253 41523
ANIK F1R                
1 28868U 05036A   26194.51721696 -.00000083  00000+0  00000+0 0  9995
2 28868   4.3776  76.2517 0003707  28.2688 265.7688  1.00271332 46719
ANIK F3                 
1 31102U 07009A   26194.51153159 -.00000006  00000+0  00000+0 0  9990
2 31102   1.2632  83.5323 0002417  27.0385 246.2433  1.00270748 46829
NIMIQ 4                 
1 33373U 08044A   26194.50947838  .00000000  00000+0  00000+0 0  9999
2 33373   0.0399  70.6682 0001925  43.2428 278.9179  1.00268120 65241
TELSTAR 11N             
1 34111U 09009A   26194.41098323 -.00000254  00000+0  00000+0 0  9990
2 34111   0.0405 263.8026 0002269 204.7411 293.1331  1.00269443 46502
TERRESTAR-1             
1 35496U 09035A   26194.52058796 -.00000064  00000+0  00000+0 0  9997
2 35496   5.1989  48.7738 0002618  55.2028 263.8324  1.00270674 62392
NIMIQ 5                 
1 35873U 09050A   26194.47533205 -.00000260  00000+0  00000+0 0  9998
2 35873   0.0503 251.9451 0002513 215.7317 282.0913  1.00271244 61609
SKYTERRA 1              
1 37218U 10061A   26194.52058796 -.00000125  00000+0  00000+0 0  9990
2 37218   5.1788  50.8084 0002525  24.4975 302.1793  1.00270230 57453
TELSTAR 14R             
1 37602U 11021A   26194.04948088 -.00000282  00000+0  00000+0 0  9997
2 37602   0.0815  84.7896 0001627   0.0686 160.8924  1.00270414 56091
NIMIQ 6                 
1 38342U 12026A   26194.47169204 -.00000177  00000+0  00000+0 0  9990
2 38342   0.0165  20.8877 0002524  93.4154 255.7494  1.00271266 50674
ANIK G1                 
1 39127U 13014A   26194.46848536 -.00000077  00000+0  00000+0 0  9990
2 39127   0.0471 254.4606 0001618 230.4089 227.8209  1.00271227 48515
TELSTAR 12V             
1 41036U 15068A   26194.41548992  .00000000  00000+0  00000+0 0  9996
2 41036   0.0265  49.5021 0002065  60.7508 315.6298  1.00269781 38884
VIASAT-2                
1 42740U 17029A   26194.47585205 -.00000269  00000+0  00000+0 0  9990
2 42740   0.0188 308.5895 0000183 267.6096 176.5791  1.00271807 33460
LEO 1 (LEO VANTAGE 1)   
1 43113U 18004C   26194.35638741  .00002680  00000+0  18864-3 0  9999
2 43113  99.2420 116.0641 0349515 359.3190   0.7490 14.68015694441324
TELSTAR 19V             
1 43562U 18059A   26194.47723874 -.00000283  00000+0  00000+0 0  9999
2 43562   0.0313 150.4839 0002842 342.4837 267.1900  1.00269502 29401
TELSTAR 18V             
1 43611U 18069A   26194.52037462 -.00000298  00000+0  00000+0 0  9998
2 43611   0.0151 318.0250 0001664 158.6111 140.0899  1.00269998 28907
AMOS-17                 
1 44479U 19050A   26194.35047720  .00000106  00000+0  00000+0 0  9998
2 44479   0.0151  10.0244 0001275 109.3182 315.0421  1.00272801 25449
